FLOCK 3M-1              
1 42995U 17068J   19027.31175916  .00003290  00000-0  15660-3 0  9998
2 42995  97.3673 139.4132 0018550  82.3924 336.7601 15.19698096 68662
FLOCK 3M-3              
1 42996U 17068K   19027.32183944  .00001667  00000-0  80605-4 0  9998
2 42996  97.3631 139.2713 0017443  85.1829 340.0418 15.19855404 68678
FLOCK 3M-4              
1 42997U 17068L   19027.81520825  .00003436  00000-0  16374-3 0  9993
2 42997  97.3830 141.0291 0018020  86.2889  68.6083 15.19644209 68740
FLOCK 3M-2              
1 42998U 17068M   19027.29116168  .00000996  00000-0  49772-4 0  9994
2 42998  97.3762 140.0114 0017087  81.9200 335.5046 15.19629108 68677
FLOCK 3P'-3             
1 43119U 18004J   19027.59981440  .00000551  00000-0  26772-4 0  9999
2 43119  97.5090  95.3974 0011117  37.8771 322.3245 15.22586256 57859
FLOCK 3P'-2             
1 43120U 18004K   19027.60622359  .00000405  00000-0  20538-4 0  9996
2 43120  97.5092  95.3897 0011045  38.0467 322.1547 15.22525078 57850
FLOCK 3P'-1             
1 43121U 18004L   19027.58465062  .00001329  00000-0  59800-4 0  9990
2 43121  97.5088  95.4073 0011007  37.8836 322.3173 15.22826764 57783
FLOCK 3P'-4             
1 43122U 18004M   19027.60390408  .00000530  00000-0  25898-4 0  9998
2 43122  97.5095  95.4058 0010917  39.4264 320.7765 15.22554385 57851
DOVE PIONEER            
1 43163U 18010A   19027.70618924  .00037587 -65492-6  18661-3 0  9991
2 43163  82.9080 127.1623 0108011 267.2390  91.6509 15.73412198 58013
FLOCK 3R-10             
1 43723U 18096E   19027.66468740  .00003055  00000-0  12080-3 0  9990
2 43723  97.4784  97.6969 0019935 111.9494  40.1060 15.26078404  9065
FLOCK 3R-12             
1 43724U 18096F   19027.79278407  .00003304  00000-0  13032-3 0  9999
2 43724  97.4770  97.8241 0019914 111.9179  27.6613 15.26105680  9086
FLOCK 3R-11             
1 43725U 18096G   19027.79278119  .00003716  00000-0  14615-3 0  9995
2 43725  97.4771  97.8238 0020011 112.2035  28.0972 15.26108583  9087
FLOCK 3R-5              
1 43726U 18096H   19027.78905877  .00003357  00000-0  13200-3 0  9993
2 43726  97.4781  97.8336 0020124 113.3451  24.6184 15.26191559  9089
FLOCK 3R-8              
1 43727U 18096J   19027.76223518  .00002954  00000-0  11633-3 0  9997
2 43727  97.4780  97.8114 0020225 114.1712 246.1644 15.26235193  9089
FLOCK 3R-4              
1 43733U 18096Q   19027.63747984  .00001036  00000-0  41908-4 0  9997
2 43733  97.4763  97.7375 0022943 116.1810  48.0835 15.26796734  9067
FLOCK 3R-3              
1 43734U 18096R   19027.70027013  .00002817  00000-0  10880-3 0  9992
2 43734  97.4768  97.8058 0022902 117.0453  40.2937 15.26875147  9074
FLOCK 3R-16             
1 43735U 18096S   19027.66549745  .00000720  00000-0  29812-4 0  9996
2 43735  97.4775  97.7823 0023664 118.0795 242.2840 15.27000824  9089
FLOCK 3R-15             
1 43736U 18096T   19027.79672596  .00001214  00000-0  48313-4 0  9998
2 43736  97.4776  97.9145 0023651 117.6129 242.7515 15.27007731  9091
FLOCK 3R-10             
1 43740U 18096X   19027.83356364  .00002635  00000-0  10457-3 0  9995
2 43740  97.4771  97.8645 0019944 112.4637 247.8716 15.26082007  9123
FLOCK 3R-6              
1 43741U 18096Y   19026.92138095  .00003019  00000-0  11898-3 0  9991
2 43741  97.4794  96.9663 0020022 116.2005 299.6191 15.26199527  8968
FLOCK 3R-7              
1 43742U 18096Z   19027.84035404  .00003324  00000-0  13067-3 0  9993
2 43742  97.4774  97.8862 0020025 112.6623 311.6064 15.26212970  9094
FLOCK 3R-1              
1 43747U 18096AE  19027.82318319  .00001079  00000-0  43516-4 0  9993
2 43747  97.4774  97.9257 0023157 116.1295 354.4985 15.26825981  9102
FLOCK 3R-2              
1 43748U 18096AF  19027.82292694  .00001053  00000-0  42508-4 0  9993
2 43748  97.4765  97.9285 0023289 116.1549 355.0598 15.26836629  9100
FLOCK 3R-14             
1 43749U 18096AG  19027.81007078  .00002601  00000-0  99765-4 0  9990
2 43749  97.4771  97.9340 0023667 117.6624 337.1817 15.27166894  9106
FLOCK 3R-13             
1 43750U 18096AH  19027.81059703  .00001632  00000-0  63749-4 0  9990
2 43750  97.4769  97.9332 0023728 117.8142 337.8510 15.27125868  9104
FLOCK 3S-1              
1 43769U 18099M   19027.78165672 -.00000286  00000-0 -20990-4 0  9999
2 43769  97.7569 101.3238 0015624  86.6735 273.6272 14.94660225  8225
FLOCK 3S-3              
1 43788U 18099AG  19027.83248208 -.00000011  00000-0  42658-5 0  9994
2 43788  97.7611 101.4381 0016437  84.2531 276.0563 14.95104453  8222
SKYSAT-C12              
1 43797U 18099AR  19027.81317500  .00000508  00000-0  50851-4 0  9997
2 43797  97.7607 101.4638 0015653  85.5197 274.7812 14.95622234  8216
SKYSAT-C13              
1 43802U 18099AW  19027.60889255  .00000536  00000-0  49800-4 0  9995
2 43802  97.7552 101.4009 0010647 166.8311 193.3191 14.98481817  7907
FLOCK 3K-3              
1 43892U 18111S   19027.87504511  .00001518  00000-0  66231-4 0  9995
2 43892  97.2997 296.9036 0025678 134.0767 226.2590 15.23369260  4841
FLOCK 3K-4              
1 43893U 18111T   19027.80828410  .00001572  00000-0  68401-4 0  9997
2 43893  97.2997 296.8412 0025699 134.0755 226.2604 15.23415717  4833
FLOCK 3K-1              
1 43894U 18111U   19027.80747366  .00003142  00000-0  13359-3 0  9994
2 43894  97.2988 296.8403 0025733 133.9715 226.3650 15.23461275  4839
FLOCK 3K-2              
1 43895U 18111V   19027.87195081  .00001565  00000-0  67901-4 0  9993
2 43895  97.2994 296.9065 0025773 133.5152 226.8233 15.23513603  4843
FLOCK 3K-6              
1 43896U 18111W   19027.80545914  .00001442  00000-0  62828-4 0  9998
2 43896  97.2994 296.8434 0023898 130.4510 229.8816 15.23549493  4838
FLOCK 3K-5              
1 43899U 18111Z   19027.88207036  .00001468  00000-0  63785-4 0  9990
2 43899  97.2997 296.9217 0023795 129.9567 295.6638 15.23603354  4846
FLOCK 3K-8              
1 43901U 18111AB  19027.86929306  .00001453  00000-0  63101-4 0  9999
2 43901  97.2991 296.9085 0024015 129.9358 230.3994 15.23641004  4846
FLOCK 3K-7              
1 43902U 18111AC  19027.86798967  .00003206  00000-0  13528-3 0  9992
2 43902  97.2988 296.9108 0024085 129.4296 230.9079 15.23741352  4849
FLOCK 3K-12             
1 43903U 18111AD  19027.86751460  .00003239  00000-0  13655-3 0  9997
2 43903  97.2987 296.9114 0023823 129.9664 230.3671 15.23767731  4840
FLOCK 3K-11             
1 43904U 18111AE  19027.86605989  .00003257  00000-0  13702-3 0  9995
2 43904  97.2990 296.9141 0023779 129.4474 230.8873 15.23839590  4841
FLOCK 3K-10             
1 43905U 18111AF  19027.80000381  .00003267  00000-0  13738-3 0  9995
2 43905  97.2991 296.8510 0023638 129.7602 230.5723 15.23855251  4834
FLOCK 3K-9              
1 43906U 18111AG  19027.79909158  .00001522  00000-0  65502-4 0  9993
2 43906  97.2993 296.8515 0023575 129.6751 230.6570 15.23877247  4836
